0 THORAD AGENA D DEB
1 05430U 69082HW  13281.73670903  .00000304  00000-0  18259-3 0  7541
2 05430 070.1088 149.1395 0061659 171.3289 256.7840 14.14814987256853
0 THORAD AGENA D DEB
1 05430U 69082HW  13287.75731370  .00000418  00000-0  24019-3 0  7564
2 05430 070.1074 135.9293 0061369 162.9216 322.0083 14.14822493257704
0 THORAD AGENA D DEB
1 05430U 69082HW  13290.56766023  .00000365  00000-0  21331-3 0  7576
2 05430 070.1068 129.7626 0061294 158.9931 236.2242 14.14825833258103
0 THORAD AGENA D DEB
1 05430U 69082HW  13292.70796175  .00000479  00000-0  27132-3 0  7587
2 05430 070.1068 125.0659 0061228 155.9762 337.6840 14.14826868258406
0 THORAD AGENA D DEB
1 05430U 69082HW  13295.51595348  .00000580  00000-0  32290-3 0  7593
2 05430 070.1069 118.9038 0061145 152.0120 239.9941 14.14829714258806
